NIGERIAEDUSAT-1         
1 42824U 98067MY  18131.60081072  .00025886  00000-0  25323-3 0  9995
2 42824  51.6360 187.4445 0006154  41.4276 318.7185 15.65941487 48089
CORVUS BC2              
1 42846U 17042X   18131.78515816  .00000092  00000-0  14517-4 0  9996
2 42846  97.6004  35.9667 0008725 326.1889  33.8773 14.91803456 44940
CORVUS BC1              
1 42847U 17042Y   18131.56403025  .00000200  00000-0  25093-4 0  9993
2 42847  97.6003  35.7974 0008416 326.6981  33.3708 14.91902622 44908
SILU-1 (SILKROAD 1)     
1 42903U 17021F   18131.66754688  .00026845  00000-0  21779-3 0  9997
2 42903  42.7783 189.1844 0010809  38.7482 102.0206 15.70114301 44187
MIRATA                  
1 43015U 17073C   18131.60122014  .00002737  00000-0  21999-3 0  9993
2 43015  97.7028  64.1583 0259531  30.9412 330.6801 14.78032252 25731
ASTERIA                 
1 43020U 98067NH  18131.66863580  .00015792  00000-0  20837-3 0  9992
2 43020  51.6411 197.6945 0003209  34.5399 325.5802 15.58567480 26795
DELLINGR (RBLE)         
1 43021U 98067NJ  18131.80989746  .00006686  00000-0  97215-4 0  9999
2 43021  51.6393 197.8733 0002865  30.6669 329.4490 15.57083349 26800
TECHEDSAT 6             
1 43026U 98067NK  18131.70606356  .01615728  16912-2  23429-2 0  9995
2 43026  51.6256 182.7416 0011897  12.7857 347.3234 16.04860502 26890
OSIRIS-3U               
1 43027U 98067NL  18131.71718316  .00034297  00000-0  38172-3 0  9993
2 43027  51.6375 194.9967 0004775   8.1019 352.0052 15.62512912 26719
AEROCUBE 7B             
1 43042U 17071F   18131.49100952  .00003185  00000-0  92336-4 0  9997
2 43042  51.6388 220.2599 0005452 128.4279 231.7195 15.38646350 23952
AEROCUBE 7C             
1 43043U 17071G   18131.49097204  .00003006  00000-0  87732-4 0  9999
2 43043  51.6390 220.2627 0005457 130.2886 229.8576 15.38639538 23926
CHEFSAT                 
1 43044U 17071H   18131.84394478  .00008311  00000-0  21879-3 0  9995
2 43044  51.6394 218.1321 0005298 131.0479 229.0964 15.39407574 23981
ASGARDIA 1              
1 43049U 17071N   18131.86462584  .00003383  00000-0  97006-4 0  9996
2 43049  51.6391 218.2628 0002785 146.2489 213.8673 15.38778707 23976
ISARA                   
1 43050U 17071P   18131.84280514  .00006782  00000-0  18122-3 0  9994
2 43050  51.6391 218.1246 0002624 143.8875 216.2286 15.39273677 23971
FAUNA                   
1 43052U 17071R   18131.66130059  .00004459  00000-0  12411-3 0  9998
2 43052  51.6392 219.1613 0002747 142.1593 217.9585 15.38898585 23945
CORVUS BC3              
1 43118U 18004H   18131.72441192  .00001072  00000-0  49816-4 0  9996
2 43118  97.5360 194.2370 0009673 215.1709 144.8889 15.22181687 18164
MICROMAS-2A             
1 43131U 18004W   18131.43408502  .00002231  00000-0  98870-4 0  9999
2 43131  97.5368 194.0180 0008828 218.5046 141.5561 15.22660503 18122
GOMX4-B                 
1 43196U 18015E   18131.56048876  .00001205  00000-0  53236-4 0  9997
2 43196  97.3405 261.2616 0017659 286.8021  73.1279 15.23527977 14958
GOMX4-A                 
1 43197U 18015F   18131.71137404  .00000689  00000-0  31608-4 0  9995
2 43197  97.3406 261.4081 0017814 289.0353 179.2415 15.23620037 14988
